[
  {
    "OBJECT_NAME": "STARLINK-11147 [DTC]",
    "OBJECT_ID": "24133A",
    "EPOCH": "2025-11-11T03:40:42.916800",
    "MEAN_MOTION": 15.69699224,
    "ECCENTRICITY": 0.0001088,
    "INCLINATION": 53.1585,
    "RA_OF_ASC_NODE": 10.7869,
    "ARG_OF_PERICENTER": 83.5823,
    "MEAN_ANOMALY": 276.5319,
    "EPHEMERIS_TYPE": 0,
    "CLASSIFICATION_TYPE": "U",
    "NORAD_CAT_ID": 60301,
    "ELEMENT_SET_NO": 999,
    "REV_AT_EPOCH": 7511,
    "BSTAR": 1.9416000000000002e-05,
    "MEAN_MOTION_DOT": 1.763e-05,
    "MEAN_MOTION_DDOT": 0.0,
    "TLE_LINE1": "1 60301U 24133A   25315.15327450  .00001763  00000+0  19416-4 0  9997",
    "TLE_LINE2": "2 60301  53.1585  10.7869 0001088  83.5823 276.5319 15.69699224 75116",
    "COMMENT": "Grouped by shell and plane from TLE"
  },
  {
    "OBJECT_NAME": "STARLINK-11128 [DTC]",
    "OBJECT_ID": "24133B",
    "EPOCH": "2025-11-11T03:33:38.996928",
    "MEAN_MOTION": 15.69696143,
    "ECCENTRICITY": 0.0001308,
    "INCLINATION": 53.1585,
    "RA_OF_ASC_NODE": 10.7529,
    "ARG_OF_PERICENTER": 105.6995,
    "MEAN_ANOMALY": 254.4167,
    "EPHEMERIS_TYPE": 0,
    "CLASSIFICATION_TYPE": "U",
    "NORAD_CAT_ID": 60302,
    "ELEMENT_SET_NO": 999,
    "REV_AT_EPOCH": 7511,
    "BSTAR": 3.0463000000000003e-05,
    "MEAN_MOTION_DOT": 3.101e-05,
    "MEAN_MOTION_DDOT": 0.0,
    "TLE_LINE1": "1 60302U 24133B   25315.14836802  .00003101  00000+0  30463-4 0  9996",
    "TLE_LINE2": "2 60302  53.1585  10.7529 0001308 105.6995 254.4167 15.69696143 75114",
    "COMMENT": "Grouped by shell and plane from TLE"
  },
  {
    "OBJECT_NAME": "STARLINK-11227 [DTC]",
    "OBJECT_ID": "24133C",
    "EPOCH": "2025-11-11T03:26:35.053728",
    "MEAN_MOTION": 15.69734504,
    "ECCENTRICITY": 6.8e-05,
    "INCLINATION": 53.1578,
    "RA_OF_ASC_NODE": 10.7204,
    "ARG_OF_PERICENTER": 16.8804,
    "MEAN_ANOMALY": 343.2236,
    "EPHEMERIS_TYPE": 0,
    "CLASSIFICATION_TYPE": "U",
    "NORAD_CAT_ID": 60303,
    "ELEMENT_SET_NO": 999,
    "REV_AT_EPOCH": 7519,
    "BSTAR": 0.00024137,
    "MEAN_MOTION_DOT": 0.00028784,
    "MEAN_MOTION_DDOT": 0.0,
    "TLE_LINE1": "1 60303U 24133C   25315.14346127  .00028784  00000+0  24137-3 0  9997",
    "TLE_LINE2": "2 60303  53.1578  10.7204 0000680  16.8804 343.2236 15.69734504 75197",
    "COMMENT": "Grouped by shell and plane from TLE"
  },
  {
    "OBJECT_NAME": "STARLINK-11224 [DTC]",
    "OBJECT_ID": "24133D",
    "EPOCH": "2025-11-11T04:51:12.126816",
    "MEAN_MOTION": 15.6972935,
    "ECCENTRICITY": 0.000103,
    "INCLINATION": 53.1576,
    "RA_OF_ASC_NODE": 10.3733,
    "ARG_OF_PERICENTER": 86.6385,
    "MEAN_ANOMALY": 273.4751,
    "EPHEMERIS_TYPE": 0,
    "CLASSIFICATION_TYPE": "U",
    "NORAD_CAT_ID": 60304,
    "ELEMENT_SET_NO": 999,
    "REV_AT_EPOCH": 7520,
    "BSTAR": 7.765e-05,
    "MEAN_MOTION_DOT": 8.836e-05,
    "MEAN_MOTION_DDOT": 0.0,
    "TLE_LINE1": "1 60304U 24133D   25315.20222369  .00008836  00000+0  77650-4 0  9991",
    "TLE_LINE2": "2 60304  53.1576  10.3733 0001030  86.6385 273.4751 15.69729350 75209",
    "COMMENT": "Grouped by shell and plane from TLE"
  },
  {
    "OBJECT_NAME": "STARLINK-11115 [DTC]",
    "OBJECT_ID": "24133E",
    "EPOCH": "2025-11-11T04:44:08.791872",
    "MEAN_MOTION": 15.69711357,
    "ECCENTRICITY": 9.6e-05,
    "INCLINATION": 53.1582,
    "RA_OF_ASC_NODE": 10.3392,
    "ARG_OF_PERICENTER": 78.0267,
    "MEAN_ANOMALY": 282.0858,
    "EPHEMERIS_TYPE": 0,
    "CLASSIFICATION_TYPE": "U",
    "NORAD_CAT_ID": 60305,
    "ELEMENT_SET_NO": 999,
    "REV_AT_EPOCH": 7512,
    "BSTAR": 5.3948e-05,
    "MEAN_MOTION_DOT": 5.952e-05,
    "MEAN_MOTION_DDOT": 0.0,
    "TLE_LINE1": "1 60305U 24133E   25315.19732398  .00005952  00000+0  53948-4 0  9998",
    "TLE_LINE2": "2 60305  53.1582  10.3392 0000960  78.0267 282.0858 15.69711357 75126",
    "COMMENT": "Grouped by shell and plane from TLE"
  },
  {
    "OBJECT_NAME": "STARLINK-11109 [DTC]",
    "OBJECT_ID": "24133F",
    "EPOCH": "2025-11-11T03:05:23.537760",
    "MEAN_MOTION": 15.69761976,
    "ECCENTRICITY": 0.0003603,
    "INCLINATION": 53.1572,
    "RA_OF_ASC_NODE": 10.6217,
    "ARG_OF_PERICENTER": 61.8135,
    "MEAN_ANOMALY": 298.3247,
    "EPHEMERIS_TYPE": 0,
    "CLASSIFICATION_TYPE": "U",
    "NORAD_CAT_ID": 60306,
    "ELEMENT_SET_NO": 999,
    "REV_AT_EPOCH": 7511,
    "BSTAR": 0.00023207,
    "MEAN_MOTION_DOT": 0.00027685,
    "MEAN_MOTION_DDOT": 0.0,
    "TLE_LINE1": "1 60306U 24133F   25315.12874465  .00027685  00000+0  23207-3 0  9995",
    "TLE_LINE2": "2 60306  53.1572  10.6217 0003603  61.8135 298.3247 15.69761976 75119",
    "COMMENT": "Grouped by shell and plane from TLE"
  },
  {
    "OBJECT_NAME": "STARLINK-11213 [DTC]",
    "OBJECT_ID": "24133J",
    "EPOCH": "2025-11-11T04:15:52.970688",
    "MEAN_MOTION": 15.6969732,
    "ECCENTRICITY": 9.49e-05,
    "INCLINATION": 53.1575,
    "RA_OF_ASC_NODE": 10.2082,
    "ARG_OF_PERICENTER": 65.7083,
    "MEAN_ANOMALY": 294.4034,
    "EPHEMERIS_TYPE": 0,
    "CLASSIFICATION_TYPE": "U",
    "NORAD_CAT_ID": 60309,
    "ELEMENT_SET_NO": 999,
    "REV_AT_EPOCH": 7512,
    "BSTAR": 3.141e-05,
    "MEAN_MOTION_DOT": 3.216e-05,
    "MEAN_MOTION_DDOT": 0.0,
    "TLE_LINE1": "1 60309U 24133J   25315.17769642  .00003216  00000+0  31410-4 0  9993",
    "TLE_LINE2": "2 60309  53.1575  10.2082 0000949  65.7083 294.4034 15.69697320 75129",
    "COMMENT": "Grouped by shell and plane from TLE"
  },
  {
    "OBJECT_NAME": "STARLINK-11206 [DTC]",
    "OBJECT_ID": "24133M",
    "EPOCH": "2025-11-11T03:54:50.256288",
    "MEAN_MOTION": 15.69726188,
    "ECCENTRICITY": 0.000123,
    "INCLINATION": 53.158,
    "RA_OF_ASC_NODE": 10.8419,
    "ARG_OF_PERICENTER": 111.3504,
    "MEAN_ANOMALY": 248.7645,
    "EPHEMERIS_TYPE": 0,
    "CLASSIFICATION_TYPE": "U",
    "NORAD_CAT_ID": 60312,
    "ELEMENT_SET_NO": 999,
    "REV_AT_EPOCH": 7511,
    "BSTAR": 0.0,
    "MEAN_MOTION_DOT": -2.727e-05,
    "MEAN_MOTION_DDOT": 0.0,
    "TLE_LINE1": "1 60312U 24133M   25315.16308167 -.00002727  00000+0 -17642-4 0  9996",
    "TLE_LINE2": "2 60312  53.1580  10.8419 0001230 111.3504 248.7645 15.69726188 75113",
    "COMMENT": "Grouped by shell and plane from TLE"
  },
  {
    "OBJECT_NAME": "STARLINK-11205 [DTC]",
    "OBJECT_ID": "24133N",
    "EPOCH": "2025-11-11T03:47:46.533408",
    "MEAN_MOTION": 15.69725477,
    "ECCENTRICITY": 6.53e-05,
    "INCLINATION": 53.1575,
    "RA_OF_ASC_NODE": 10.8107,
    "ARG_OF_PERICENTER": 29.69,
    "MEAN_ANOMALY": 330.4155,
    "EPHEMERIS_TYPE": 0,
    "CLASSIFICATION_TYPE": "U",
    "NORAD_CAT_ID": 60313,
    "ELEMENT_SET_NO": 999,
    "REV_AT_EPOCH": 7511,
    "BSTAR": 0.00016617999999999998,
    "MEAN_MOTION_DOT": 0.00019604,
    "MEAN_MOTION_DDOT": 0.0,
    "TLE_LINE1": "1 60313U 24133N   25315.15817747  .00019604  00000+0  16618-3 0  9996",
    "TLE_LINE2": "2 60313  53.1575  10.8107 0000653  29.6900 330.4155 15.69725477 75116",
    "COMMENT": "Grouped by shell and plane from TLE"
  },
  {
    "OBJECT_NAME": "STARLINK-11412 [DTC]",
    "OBJECT_ID": "25035L",
    "EPOCH": "2025-11-10T11:45:05.055840",
    "MEAN_MOTION": 15.70854033,
    "ECCENTRICITY": 0.0001468,
    "INCLINATION": 42.9997,
    "RA_OF_ASC_NODE": 13.8504,
    "ARG_OF_PERICENTER": 292.9176,
    "MEAN_ANOMALY": 67.1536,
    "EPHEMERIS_TYPE": 0,
    "CLASSIFICATION_TYPE": "U",
    "NORAD_CAT_ID": 63062,
    "ELEMENT_SET_NO": 999,
    "REV_AT_EPOCH": 4247,
    "BSTAR": 0.0036898,
    "MEAN_MOTION_DOT": 0.00503132,
    "MEAN_MOTION_DDOT": 0.0,
    "TLE_LINE1": "1 63062U 25035L   25314.48964185  .00503132  00000+0  36898-2 0  9991",
    "TLE_LINE2": "2 63062  42.9997  13.8504 0001468 292.9176  67.1536 15.70854033 42476",
    "COMMENT": "Grouped by shell and plane from TLE"
  }
]